ONEWEB-0249             
1 48967U 21060A   25284.92202072  .00001057  00000+0  27315-2 0  9990
2 48967  87.8966 278.2431 0001819  91.8310 268.3030 13.16586860206945
ONEWEB-0250             
1 48968U 21060B   25284.94153890  .00000042  00000+0  64671-4 0  9997
2 48968  87.8966 276.8078 0002878  97.8025 262.3438 13.25815057207324
ONEWEB-0252             
1 48970U 21060D   25284.95369336  .00000061  00000+0  12625-3 0  9997
2 48970  87.8964 278.2300 0001568  88.3028 271.8282 13.16596397206999
ONEWEB-0253             
1 48971U 21060E   25284.94260206  .00000006  00000+0 -18081-4 0  9996
2 48971  87.8971 278.2359 0001807  95.5171 264.6166 13.16594709206926
ONEWEB-0254             
1 48972U 21060F   25284.95211204  .00000028  00000+0  38798-4 0  9992
2 48972  87.8976 278.2222 0001959 100.6894 259.4458 13.16596481206924
ONEWEB-0255             
1 48973U 21060G   25284.68612339 -.00000003  00000+0 -42089-4 0  9990
2 48973  87.8964 278.2986 0001915  97.2125 262.9224 13.16594129206960
ONEWEB-0256             
1 48974U 21060H   25284.94023295  .00000084  00000+0  18507-3 0  9991
2 48974  87.8962 278.2585 0001796  85.5569 274.5767 13.16594093206964
ONEWEB-0257             
1 48975U 21060J   25284.74470077  .00000034  00000+0  54759-4 0  9999
2 48975  87.8969 278.2694 0001781  94.6761 265.4573 13.16593849206896
